[{"OBJECT_NAME":"STARLINK-6192","OBJECT_ID":"2023-083AD","EPOCH":"2026-03-09T22:00:01.999584","MEAN_MOTION":15.1488328,"ECCENTRICITY":0.00021062,"INCLINATION":43.0015,"RA_OF_ASC_NODE":79.7592,"ARG_OF_PERICENTER":275.013,"MEAN_ANOMALY":85.6759,"EPHEMERIS_TYPE":0,"CLASSIFICATION_TYPE":"U","NORAD_CAT_ID":56903,"ELEMENT_SET_NO":999,"REV_AT_EPOCH":557,"BSTAR":0.066421803,"MEAN_MOTION_DOT":0.01370336,"MEAN_MOTION_DDOT":0},{"OBJECT_NAME":"FLOCK 4G-26","OBJECT_ID":"2025-009AA","EPOCH":"2026-03-09T19:19:02.910720","MEAN_MOTION":15.27281631,"ECCENTRICITY":0.0001988,"INCLINATION":97.4054,"RA_OF_ASC_NODE":151.3913,"ARG_OF_PERICENTER":299.1273,"MEAN_ANOMALY":60.9767,"EPHEMERIS_TYPE":0,"CLASSIFICATION_TYPE":"U","NORAD_CAT_ID":62633,"ELEMENT_SET_NO":999,"REV_AT_EPOCH":6373,"BSTAR":0.00042468806,"MEAN_MOTION_DOT":0.00011283,"MEAN_MOTION_DDOT":0}]
